start=new Date('2022-11-08T00:00:00.000Z').valueOf();
sats=[{"OBJECT_NAME":"STARLINK-4809","MEAN_MOTION_DDOT":"0.0000000000000","PERIOD":"91.531","MEAN_MOTION_DOT":"0.00049173","NORAD_CAT_ID":"53857","CLASSIFICATION_TYPE":"U","SITE":"AFETR","TLE_LINE2":"2 53857  53.2158  11.5411 0003187  14.1273  95.6068 15.73232709  8443","INCLINATION":"53.2158","MEAN_ANOMALY":"95.6068","BSTAR":"0.00035218000000","OBJECT_TYPE":"PAYLOAD","DECAY_DATE":null,"EPOCH":"2022-11-08T00:00:02.000160","REF_FRAME":"TEME","MEAN_ELEMENT_THEORY":"SGP4","RCS_SIZE":"LARGE","TLE_LINE1":"1 53857U 22114AR  22312.00002315  .00049173  00000-0  35218-3 0  9995","SEMIMAJOR_AXIS":"6727.802","ECCENTRICITY":"0.00031870","LAUNCH_DATE":"2022-09-19","ELEMENT_SET_NO":"999","GP_ID":"217082948","APOAPSIS":"351.811","ARG_OF_PERICENTER":"14.1273","CENTER_NAME":"EARTH","PERIAPSIS":"347.523","MEAN_MOTION":"15.73232709","FILE":"3648152","OBJECT_ID":"2022-114AR","EPHEMERIS_TYPE":"0","COUNTRY_CODE":"US","REV_AT_EPOCH":"844","RA_OF_ASC_NODE":"11.5411","TIME_SYSTEM":"UTC"},{"EPHEMERIS_TYPE":"0","OBJECT_ID":"2022-114AS","RA_OF_ASC_NODE":"11.5377","TIME_SYSTEM":"UTC","REV_AT_EPOCH":"844","COUNTRY_CODE":"US","APOAPSIS":"351.792","ELEMENT_SET_NO":"999","GP_ID":"217082964","LAUNCH_DATE":"2022-09-19","FILE":"3648163","CENTER_NAME":"EARTH","PERIAPSIS":"347.355","MEAN_MOTION":"15.73265491","ARG_OF_PERICENTER":"12.5532","INCLINATION":"53.2148","MEAN_ANOMALY":"99.4998","TLE_LINE2":"2 53858  53.2148  11.5377 0003297  12.5532  99.4998 15.73265491  8444","SEMIMAJOR_AXIS":"6727.708","TLE_LINE1":"1 53858U 22114AS  22312.00002315  .00014463  00000-0  10699-3 0  9996","RCS_SIZE":"MEDIUM","ECCENTRICITY":"0.00032970","MEAN_ELEMENT_THEORY":"SGP4","DECAY_DATE":null,"EPOCH":"2022-11-08T00:00:02.000160","REF_FRAME":"TEME","OBJECT_TYPE":"PAYLOAD","BSTAR":"0.00010699000000","MEAN_MOTION_DOT":"0.00014463","CLASSIFICATION_TYPE":"U","NORAD_CAT_ID":"53858","PERIOD":"91.529","OBJECT_NAME":"STARLINK-4798","MEAN_MOTION_DDOT":"0.0000000000000","SITE":"AFETR"},{"TLE_LINE1":"1 53859U 22114AT  22311.91667824 -.00035302  00000-0 -24772-3 0  9992","RCS_SIZE":"LARGE","SEMIMAJOR_AXIS":"6727.804","ECCENTRICITY":"0.00033050","MEAN_ELEMENT_THEORY":"SGP4","REF_FRAME":"TEME","EPOCH":"2022-11-07T22:00:00.999936","DECAY_DATE":null,"BSTAR":"-0.00024772000000","OBJECT_TYPE":"PAYLOAD","MEAN_ANOMALY":"346.7420","INCLINATION":"53.2162","TLE_LINE2":"2 53859  53.2162  11.9515 0003305  11.8524 346.7420 15.73232002  1300","SITE":"AFETR","CLASSIFICATION_TYPE":"U","NORAD_CAT_ID":"53859","MEAN_MOTION_DOT":"-0.00035302","PERIOD":"91.531","MEAN_MOTION_DDOT":"0.0000000000000","OBJECT_NAME":"STARLINK-4790","TIME_SYSTEM":"UTC","RA_OF_ASC_NODE":"11.9515","REV_AT_EPOCH":"130","COUNTRY_CODE":"US","EPHEMERIS_TYPE":"0","OBJECT_ID":"2022-114AT","FILE":"3648233","PERIAPSIS":"347.445","MEAN_MOTION":"15.73232002","CENTER_NAME":"EARTH","ARG_OF_PERICENTER":"11.8524","APOAPSIS":"351.892","GP_ID":"217108421","ELEMENT_SET_NO":"999","LAUNCH_DATE":"2022-09-19"},{"EPHEMERIS_TYPE":"0","OBJECT_ID":"2022-114AU","REV_AT_EPOCH":"844","TIME_SYSTEM":"UTC","RA_OF_ASC_NODE":"11.5339","COUNTRY_CODE":"US","GP_ID":"217082963","ELEMENT_SET_NO":"999","APOAPSIS":"351.832","LAUNCH_DATE":"2022-09-19","MEAN_MOTION":"15.73259537","PERIAPSIS":"347.349","CENTER_NAME":"EARTH","FILE":"3648163","ARG_OF_PERICENTER":"16.3440","MEAN_ANOMALY":"97.5100","INCLINATION":"53.2158","TLE_LINE2":"2 53860  53.2158  11.5339 0003332  16.3440  97.5100 15.73259537  8444","MEAN_ELEMENT_THEORY":"SGP4","TLE_LINE1":"1 53860U 22114AU  22312.00002315  .00032289  00000-0  23296-3 0  9992","SEMIMAJOR_AXIS":"6727.725","RCS_SIZE":"LARGE","ECCENTRICITY":"0.00033320","OBJECT_TYPE":"PAYLOAD","BSTAR":"0.00023296000000","EPOCH":"2022-11-08T00:00:02.000160","REF_FRAME":"TEME","DECAY_DATE":null,"PERIOD":"91.530","CLASSIFICATION_TYPE":"U","NORAD_CAT_ID":"53860","MEAN_MOTION_DOT":"0.00032289","MEAN_MOTION_DDOT":"0.0000000000000","OBJECT_NAME":"STARLINK-4799","SITE":"AFETR"},{"APOAPSIS":"351.747","ELEMENT_SET_NO":"999","GP_ID":"217108249","LAUNCH_DATE":"2022-09-19","FILE":"3648233","CENTER_NAME":"EARTH","PERIAPSIS":"347.392","MEAN_MOTION":"15.73266883","ARG_OF_PERICENTER":"8.1663","EPHEMERIS_TYPE":"0","OBJECT_ID":"2022-114AV","RA_OF_ASC_NODE":"11.9475","TIME_SYSTEM":"UTC","REV_AT_EPOCH":"131","COUNTRY_CODE":"US","MEAN_MOTION_DOT":"-0.00064649","CLASSIFICATION_TYPE":"U","NORAD_CAT_ID":"53861","PERIOD":"91.529","OBJECT_NAME":"STARLINK-4781","MEAN_MOTION_DDOT":"0.0000000000000","SITE":"AFETR","INCLINATION":"53.2160","MEAN_ANOMALY":"352.1781","TLE_LINE2":"2 53861  53.2160  11.9475 0003236   8.1663 352.1781 15.73266883  1318","TLE_LINE1":"1 53861U 22114AV  22311.91667824 -.00064649  00000-0 -45826-3 0  9994","SEMIMAJOR_AXIS":"6727.704","RCS_SIZE":"LARGE","ECCENTRICITY":"0.00032360","MEAN_ELEMENT_THEORY":"SGP4","DECAY_DATE":null,"REF_FRAME":"TEME","EPOCH":"2022-11-07T22:00:00.999936","OBJECT_TYPE":"PAYLOAD","BSTAR":"-0.00045826000000"},{"INCLINATION":"53.2161","MEAN_ANOMALY":"356.0542","TLE_LINE2":"2 53862  53.2161  11.9444 0003423   6.7023 356.0542 15.73204145  1308","TLE_LINE1":"1 53862U 22114AW  22311.91667824  .00018278  00000-0  13433-3 0  9999","RCS_SIZE":"LARGE","ECCENTRICITY":"0.00034230","SEMIMAJOR_AXIS":"6727.883","MEAN_ELEMENT_THEORY":"SGP4","DECAY_DATE":null,"EPOCH":"2022-11-07T22:00:00.999936","REF_FRAME":"TEME","OBJECT_TYPE":"PAYLOAD","BSTAR":"0.00013433000000","MEAN_MOTION_DOT":"0.00018278","NORAD_CAT_ID":"53862","CLASSIFICATION_TYPE":"U","PERIOD":"91.533","OBJECT_NAME":"STARLINK-4792","MEAN_MOTION_DDOT":"0.0000000000000","SITE":"AFETR","EPHEMERIS_TYPE":"0","OBJECT_ID":"2022-114AW","TIME_SYSTEM":"UTC","RA_OF_ASC_NODE":"11.9444","REV_AT_EPOCH":"130","COUNTRY_CODE":"US","APOAPSIS":"352.051","ELEMENT_SET_NO":"999","GP_ID":"217109461","LAUNCH_DATE":"2022-09-19","FILE":"3648233","CENTER_NAME":"EARTH","PERIAPSIS":"347.445","MEAN_MOTION":"15.73204145","ARG_OF_PERICENTER":"6.7023"},{"TLE_LINE2":"2 53863  53.2159  11.5331 0003707   4.8024 108.5336 15.73271131  8444","MEAN_ANOMALY":"108.5336","INCLINATION":"53.2159","REF_FRAME":"TEME","EPOCH":"2022-11-08T00:00:02.000160","DECAY_DATE":null,"OBJECT_TYPE":"PAYLOAD","BSTAR":"-0.00015425000000","TLE_LINE1":"1 53863U 22114AX  22312.00002315 -.00022290  00000-0 -15425-3 0  9993","RCS_SIZE":"LARGE","ECCENTRICITY":"0.00037070","SEMIMAJOR_AXIS":"6727.692","MEAN_ELEMENT_THEORY":"SGP4","MEAN_MOTION_DDOT":"0.0000000000000","OBJECT_NAME":"STARLINK-4788","NORAD_CAT_ID":"53863","CLASSIFICATION_TYPE":"U","MEAN_MOTION_DOT":"-0.00022290","PERIOD":"91.529","SITE":"AFETR","OBJECT_ID":"2022-114AX","EPHEMERIS_TYPE":"0","COUNTRY_CODE":"US","TIME_SYSTEM":"UTC","RA_OF_ASC_NODE":"11.5331","REV_AT_EPOCH":"844","LAUNCH_DATE":"2022-09-19","APOAPSIS":"352.051","GP_ID":"217083378","ELEMENT_SET_NO":"999","ARG_OF_PERICENTER":"4.8024","FILE":"3648163","MEAN_MOTION":"15.73271131","PERIAPSIS":"347.063","CENTER_NAME":"EARTH"},{"LAUNCH_DATE":"2022-09-19","APOAPSIS":"352.035","GP_ID":"217083382","ELEMENT_SET_NO":"999","ARG_OF_PERICENTER":"6.1498","FILE":"3648163","MEAN_MOTION":"15.73250038","PERIAPSIS":"347.200","CENTER_NAME":"EARTH","OBJECT_ID":"2022-114AY","EPHEMERIS_TYPE":"0","COUNTRY_CODE":"US","RA_OF_ASC_NODE":"11.5288","TIME_SYSTEM":"UTC","REV_AT_EPOCH":"844","OBJECT_NAME":"STARLINK-4779","MEAN_MOTION_DDOT":"0.0000000000000","NORAD_CAT_ID":"53864","CLASSIFICATION_TYPE":"U","MEAN_MOTION_DOT":"-0.00005276","PERIOD":"91.530","SITE":"AFETR","TLE_LINE2":"2 53864  53.2158  11.5288 0003594   6.1498 110.1805 15.73250038  8442","MEAN_ANOMALY":"110.1805","INCLINATION":"53.2158","REF_FRAME":"TEME","EPOCH":"2022-11-08T00:00:02.000160","DECAY_DATE":null,"OBJECT_TYPE":"PAYLOAD","BSTAR":"-0.00003308200000","RCS_SIZE":"LARGE","TLE_LINE1":"1 53864U 22114AY  22312.00002315 -.00005276  00000-0 -33082-4 0  9999","SEMIMAJOR_AXIS":"6727.753","ECCENTRICITY":"0.00035940","MEAN_ELEMENT_THEORY":"SGP4"},{"COUNTRY_CODE":"US","REV_AT_EPOCH":"130","RA_OF_ASC_NODE":"11.9428","TIME_SYSTEM":"UTC","OBJECT_ID":"2022-114AZ","EPHEMERIS_TYPE":"0","ARG_OF_PERICENTER":"8.9738","PERIAPSIS":"347.258","MEAN_MOTION":"15.73253004","CENTER_NAME":"EARTH","FILE":"3648233","LAUNCH_DATE":"2022-09-19","GP_ID":"217108666","ELEMENT_SET_NO":"999","APOAPSIS":"351.960","BSTAR":"-0.00049572000000","OBJECT_TYPE":"PAYLOAD","EPOCH":"2022-11-07T22:00:00.999936","REF_FRAME":"TEME","DECAY_DATE":null,"MEAN_ELEMENT_THEORY":"SGP4","TLE_LINE1":"1 53865U 22114AZ  22311.91667824 -.00069804  00000-0 -49572-3 0  9998","RCS_SIZE":"LARGE","ECCENTRICITY":"0.00034950","SEMIMAJOR_AXIS":"6727.744","TLE_LINE2":"2 53865  53.2161  11.9428 0003495   8.9738 354.4307 15.73253004  1308","MEAN_ANOMALY":"354.4307","INCLINATION":"53.2161","SITE":"AFETR","MEAN_MOTION_DDOT":"0.0000000000000","OBJECT_NAME":"STARLINK-4785","PERIOD":"91.530","NORAD_CAT_ID":"53865","CLASSIFICATION_TYPE":"U","MEAN_MOTION_DOT":"-0.00069804"},{"OBJECT_ID":"2022-114BA","EPHEMERIS_TYPE":"0","COUNTRY_CODE":"US","REV_AT_EPOCH":"130","RA_OF_ASC_NODE":"11.9386","TIME_SYSTEM":"UTC","LAUNCH_DATE":"2022-09-19","GP_ID":"217109187","ELEMENT_SET_NO":"999","APOAPSIS":"351.863","ARG_OF_PERICENTER":"6.5727","MEAN_MOTION":"15.73286836","PERIAPSIS":"347.162","CENTER_NAME":"EARTH","FILE":"3648233","TLE_LINE2":"2 53866  53.2158  11.9386 0003494   6.5727 359.1387 15.73286836  1308","MEAN_ANOMALY":"359.1387","INCLINATION":"53.2158","BSTAR":"-0.00072953000000","OBJECT_TYPE":"PAYLOAD","EPOCH":"2022-11-07T22:00:00.999936","REF_FRAME":"TEME","DECAY_DATE":null,"MEAN_ELEMENT_THEORY":"SGP4","TLE_LINE1":"1 53866U 22114BA  22311.91667824 -.00102194  00000-0 -72953-3 0  9998","SEMIMAJOR_AXIS":"6727.648","RCS_SIZE":"LARGE","ECCENTRICITY":"0.00034940","OBJECT_NAME":"STARLINK-4762","MEAN_MOTION_DDOT":"0.0000000000000","PERIOD":"91.528","CLASSIFICATION_TYPE":"U","NORAD_CAT_ID":"53866","MEAN_MOTION_DOT":"-0.00102194","SITE":"AFETR"}];
